{
  "norad_id": 49445,
  "name": "STARLINK-3122",
  "history": [
    {
      "epoch": "2026-03-28T13:03:58.727808Z",
      "apogee_km": 540.6285367547471,
      "perigee_km": 538.8506424712168,
      "latitude_deg": -2.9343583629959763e-05,
      "longitude_deg": 112.91652877503503,
      "height_km": 540.6368302000417,
      "semi_major_axis_km": 6917.876589612982,
      "eccentricity": 0.0001285,
      "inclination_deg": 53.216,
      "raan_deg": 134.8746,
      "arg_perigee_deg": 90.1015,
      "mean_anomaly_deg": 270.0124,
      "mean_motion_rev_day": 15.08841243
    }
  ]
}